[{"OBJECT_NAME":"STARLINK-2757","OBJECT_ID":"2021-041BD","EPOCH":"2026-03-09T12:11:51.343296","MEAN_MOTION":15.06381389,"ECCENTRICITY":0.00014284,"INCLINATION":53.0535,"RA_OF_ASC_NODE":142.4329,"ARG_OF_PERICENTER":86.9134,"MEAN_ANOMALY":273.2018,"EPHEMERIS_TYPE":0,"CLASSIFICATION_TYPE":"U","NORAD_CAT_ID":48604,"ELEMENT_SET_NO":999,"REV_AT_EPOCH":26630,"BSTAR":0.00016192446,"MEAN_MOTION_DOT":2.13e-5,"MEAN_MOTION_DDOT":0},{"OBJECT_NAME":"AISAT","OBJECT_ID":"2014-034B","EPOCH":"2026-03-09T16:29:04.722144","MEAN_MOTION":15.06703825,"ECCENTRICITY":0.00089151,"INCLINATION":98.2441,"RA_OF_ASC_NODE":333.9816,"ARG_OF_PERICENTER":189.0234,"MEAN_ANOMALY":171.0832,"EPHEMERIS_TYPE":0,"CLASSIFICATION_TYPE":"U","NORAD_CAT_ID":40054,"ELEMENT_SET_NO":999,"REV_AT_EPOCH":63221,"BSTAR":0.00094770343,"MEAN_MOTION_DOT":0.00014038,"MEAN_MOTION_DDOT":0}]
